{
  "type": "FeatureCollection",
  "features": [
    {
      "type": "Feature",
      "properties": {
        "norad_id": 2807,
        "name": "OPS 7218 (TRANSIT 16)",
        "group": "nnss",
        "lat": 65.18979465110729,
        "lon": 172.9273993404493,
        "alt_km": 1049.2244186243115,
        "timestamp": "2025-12-24T05:51:19.877037+00:00",
        "meta_object_name": "OPS 7218 (TRANSIT 16)",
        "meta_object_id": "1967-048A",
        "meta_epoch": "2025-12-23T22:28:26.529888",
        "meta_mean_motion": 13.50724552,
        "meta_eccentricity": 0.00221581,
        "meta_inclination": 89.6733,
        "meta_ra_of_asc_node": 353.6447,
        "meta_arg_of_pericenter": 84.2694,
        "meta_mean_anomaly": 335.6997,
        "meta_ephemeris_type": 0,
        "meta_classification_type": "U",
        "meta_norad_cat_id": 2807,
        "meta_element_set_no": 999,
        "meta_rev_at_epoch": 88427,
        "meta_bstar": 0.00014050883,
        "meta_mean_motion_dot": 1.01e-06,
        "meta_mean_motion_ddot": 0,
        "tle_line1": "1 02807U 67048A   25357.93641817  .00000101  00000+0  14051-3 0  9998",
        "tle_line2": "2 02807  89.6733 353.6447 0022158  84.2694 335.6997 13.50724552884273"
      },
      "geometry": {
        "type": "Point",
        "coordinates": [
          172.9273993404493,
          65.18979465110729
        ]
      }
    },
    {
      "type": "Feature",
      "properties": {
        "norad_id": 2965,
        "name": "OPS 4947 (TRANSIT 17)",
        "group": "nnss",
        "lat": -67.38507107966426,
        "lon": 21.75289996659485,
        "alt_km": 1068.1378715672681,
        "timestamp": "2025-12-24T05:51:19.877060+00:00",
        "meta_object_name": "OPS 4947 (TRANSIT 17)",
        "meta_object_id": "1967-092A",
        "meta_epoch": "2025-12-23T11:18:43.346592",
        "meta_mean_motion": 13.53456341,
        "meta_eccentricity": 0.00469846,
        "meta_inclination": 89.2487,
        "meta_ra_of_asc_node": 23.6168,
        "meta_arg_of_pericenter": 202.6228,
        "meta_mean_anomaly": 287.0665,
        "meta_ephemeris_type": 0,
        "meta_classification_type": "U",
        "meta_norad_cat_id": 2965,
        "meta_element_set_no": 999,
        "meta_rev_at_epoch": 87242,
        "meta_bstar": 0.0001860791,
        "meta_mean_motion_dot": 1.37e-06,
        "meta_mean_motion_ddot": 0,
        "tle_line1": "1 02965U 67092A   25357.47133503  .00000137  00000+0  18608-3 0  9990",
        "tle_line2": "2 02965  89.2487  23.6168 0046984 202.6228 287.0665 13.53456341872423"
      },
      "geometry": {
        "type": "Point",
        "coordinates": [
          21.75289996659485,
          -67.38507107966426
        ]
      }
    },
    {
      "type": "Feature",
      "properties": {
        "norad_id": 3133,
        "name": "OPS 7034 (TRANSIT 18)",
        "group": "nnss",
        "lat": 2.4467152778150476,
        "lon": -86.32948606936618,
        "alt_km": 1107.2586325695083,
        "timestamp": "2025-12-24T05:51:19.877074+00:00",
        "meta_object_name": "OPS 7034 (TRANSIT 18)",
        "meta_object_id": "1968-012A",
        "meta_epoch": "2025-12-23T12:55:24.513024",
        "meta_mean_motion": 13.5156815,
        "meta_eccentricity": 0.0074852,
        "meta_inclination": 90.0285,
        "meta_ra_of_asc_node": 273.6697,
        "meta_arg_of_pericenter": 138.088,
        "meta_mean_anomaly": 34.4205,
        "meta_ephemeris_type": 0,
        "meta_classification_type": "U",
        "meta_norad_cat_id": 3133,
        "meta_element_set_no": 999,
        "meta_rev_at_epoch": 57064,
        "meta_bstar": 0.00021039635,
        "meta_mean_motion_dot": 1.49e-06,
        "meta_mean_motion_ddot": 0,
        "tle_line1": "1 03133U 68012A   25357.53847816  .00000149  00000+0  21040-3 0  9994",
        "tle_line2": "2 03133  90.0285 273.6697 0074852 138.0880  34.4205 13.51568150570645"
      },
      "geometry": {
        "type": "Point",
        "coordinates": [
          -86.32948606936618,
          2.4467152778150476
        ]
      }
    },
    {
      "type": "Feature",
      "properties": {
        "norad_id": 4507,
        "name": "NNSS 19 (TRANSIT 19)",
        "group": "nnss",
        "lat": -34.05886431254203,
        "lon": -125.45517558812081,
        "alt_km": 1020.8976884169415,
        "timestamp": "2025-12-24T05:51:19.877086+00:00",
        "meta_object_name": "NNSS 19 (TRANSIT 19)",
        "meta_object_id": "1970-067A",
        "meta_epoch": "2025-12-23T05:08:36.510144",
        "meta_mean_motion": 13.51317207,
        "meta_eccentricity": 0.01702239,
        "meta_inclination": 90.0049,
        "meta_ra_of_asc_node": 234.541,
        "meta_arg_of_pericenter": 262.7201,
        "meta_mean_anomaly": 95.4575,
        "meta_ephemeris_type": 0,
        "meta_classification_type": "U",
        "meta_norad_cat_id": 4507,
        "meta_element_set_no": 999,
        "meta_rev_at_epoch": 72363,
        "meta_bstar": 0.00015353902,
        "meta_mean_motion_dot": 1.17e-06,
        "meta_mean_motion_ddot": 0,
        "tle_line1": "1 04507U 70067A   25357.21431146  .00000117  00000+0  15354-3 0  9999",
        "tle_line2": "2 04507  90.0049 234.5410 0170223 262.7201  95.4575 13.51317207723630"
      },
      "geometry": {
        "type": "Point",
        "coordinates": [
          -125.45517558812081,
          -34.05886431254203
        ]
      }
    },
    {
      "type": "Feature",
      "properties": {
        "norad_id": 6909,
        "name": "NNSS 20 (TRANSIT 20)",
        "group": "nnss",
        "lat": 29.110484482287315,
        "lon": 74.80168341353108,
        "alt_km": 1024.2717693519908,
        "timestamp": "2025-12-24T05:51:19.877097+00:00",
        "meta_object_name": "NNSS 20 (TRANSIT 20)",
        "meta_object_id": "1973-081A",
        "meta_epoch": "2025-12-23T16:52:47.423424",
        "meta_mean_motion": 13.71439948,
        "meta_eccentricity": 0.01562328,
        "meta_inclination": 89.8561,
        "meta_ra_of_asc_node": 254.89,
        "meta_arg_of_pericenter": 45.8278,
        "meta_mean_anomaly": 315.5602,
        "meta_ephemeris_type": 0,
        "meta_classification_type": "U",
        "meta_norad_cat_id": 6909,
        "meta_element_set_no": 999,
        "meta_rev_at_epoch": 80511,
        "meta_bstar": 0.00027861987,
        "meta_mean_motion_dot": 2.84e-06,
        "meta_mean_motion_ddot": 0,
        "tle_line1": "1 06909U 73081A   25357.70332666  .00000284  00000+0  27862-3 0  9999",
        "tle_line2": "2 06909  89.8561 254.8900 0156232  45.8278 315.5602 13.71439948805110"
      },
      "geometry": {
        "type": "Point",
        "coordinates": [
          74.80168341353108,
          29.110484482287315
        ]
      }
    },
    {
      "type": "Feature",
      "properties": {
        "norad_id": 10457,
        "name": "TRANSAT",
        "group": "nnss",
        "lat": -51.55075222459045,
        "lon": -101.36648010322945,
        "alt_km": 1077.9050750039933,
        "timestamp": "2025-12-24T05:51:19.877108+00:00",
        "meta_object_name": "TRANSAT",
        "meta_object_id": "1977-106A",
        "meta_epoch": "2025-12-23T12:45:04.487616",
        "meta_mean_motion": 13.48945191,
        "meta_eccentricity": 0.00263823,
        "meta_inclination": 89.6477,
        "meta_ra_of_asc_node": 78.2148,
        "meta_arg_of_pericenter": 158.8356,
        "meta_mean_anomaly": 213.4943,
        "meta_ephemeris_type": 0,
        "meta_classification_type": "U",
        "meta_norad_cat_id": 10457,
        "meta_element_set_no": 999,
        "meta_rev_at_epoch": 36889,
        "meta_bstar": 0.00013060746,
        "meta_mean_motion_dot": 9.2e-07,
        "meta_mean_motion_ddot": 0,
        "tle_line1": "1 10457U 77106A   25357.53130194  .00000092  00000+0  13061-3 0  9990",
        "tle_line2": "2 10457  89.6477  78.2148 0026382 158.8356 213.4943 13.48945191368892"
      },
      "geometry": {
        "type": "Point",
        "coordinates": [
          -101.36648010322945,
          -51.55075222459045
        ]
      }
    },
    {
      "type": "Feature",
      "properties": {
        "norad_id": 12458,
        "name": "NOVA 1",
        "group": "nnss",
        "lat": 28.504295780266283,
        "lon": -88.85746109196027,
        "alt_km": 1167.9759377331811,
        "timestamp": "2025-12-24T05:51:19.877119+00:00",
        "meta_object_name": "NOVA 1",
        "meta_object_id": "1981-044A",
        "meta_epoch": "2025-12-23T12:48:56.172672",
        "meta_mean_motion": 13.23279641,
        "meta_eccentricity": 0.00157822,
        "meta_inclination": 89.8526,
        "meta_ra_of_asc_node": 91.2327,
        "meta_arg_of_pericenter": 77.4713,
        "meta_mean_anomaly": 293.4259,
        "meta_ephemeris_type": 0,
        "meta_classification_type": "U",
        "meta_norad_cat_id": 12458,
        "meta_element_set_no": 999,
        "meta_rev_at_epoch": 15329,
        "meta_bstar": 0.00020927536,
        "meta_mean_motion_dot": 9.8e-07,
        "meta_mean_motion_ddot": 0,
        "tle_line1": "1 12458U 81044A   25357.53398348  .00000098  00000+0  20928-3 0  9992",
        "tle_line2": "2 12458  89.8526  91.2327 0015782  77.4713 293.4259 13.23279641153298"
      },
      "geometry": {
        "type": "Point",
        "coordinates": [
          -88.85746109196027,
          28.504295780266283
        ]
      }
    }
  ]
}